[{"OBJECT_NAME":"STARLINK-6135","OBJECT_ID":"2023-065AN","EPOCH":"2026-03-09T11:35:05.970336","MEAN_MOTION":15.02534558,"ECCENTRICITY":0.00017857,"INCLINATION":43.0029,"RA_OF_ASC_NODE":224.4769,"ARG_OF_PERICENTER":279.0446,"MEAN_ANOMALY":81.0195,"EPHEMERIS_TYPE":0,"CLASSIFICATION_TYPE":"U","NORAD_CAT_ID":56539,"ELEMENT_SET_NO":999,"REV_AT_EPOCH":15644,"BSTAR":1.946475e-5,"MEAN_MOTION_DOT":5.9e-7,"MEAN_MOTION_DDOT":0},{"OBJECT_NAME":"COSMOS 2251 DEB","OBJECT_ID":"1993-036HX","EPOCH":"2026-03-09T21:31:03.673056","MEAN_MOTION":15.04193551,"ECCENTRICITY":0.00046843,"INCLINATION":74.0171,"RA_OF_ASC_NODE":332.1487,"ARG_OF_PERICENTER":332.3762,"MEAN_ANOMALY":27.7177,"EPHEMERIS_TYPE":0,"CLASSIFICATION_TYPE":"U","NORAD_CAT_ID":34036,"ELEMENT_SET_NO":999,"REV_AT_EPOCH":89876,"BSTAR":0.0040391987,"MEAN_MOTION_DOT":0.00056541,"MEAN_MOTION_DDOT":0}]
